{
    "links": {
        "self": "http://www.neowsapp.com/rest/v1/neo/3699479?api_key=iIulBulltgU6a56xZRHN4H3l9WmuAYTsLGpBGhQ2"
    },
    "id": "3699479",
    "neo_reference_id": "3699479",
    "name": "(2014 WW363)",
    "designation": "2014 WW363",
    "nasa_jpl_url": "http://ssd.jpl.nasa.gov/sbdb.cgi?sstr=3699479",
    "absolute_magnitude_h": 24.2,
    "estimated_diameter": {
        "kilometers": {
            "estimated_diameter_min": 0.0384197891,
            "estimated_diameter_max": 0.0859092601
        },
        "meters": {
            "estimated_diameter_min": 38.4197891064,
            "estimated_diameter_max": 85.9092601232
        },
        "miles": {
            "estimated_diameter_min": 0.0238729428,
            "estimated_diameter_max": 0.0533815229
        },
        "feet": {
            "estimated_diameter_min": 126.0491808919,
            "estimated_diameter_max": 281.8545369825
        }
    },
    "is_potentially_hazardous_asteroid": false,
    "close_approach_data": [
        {
            "close_approach_date": "2014-12-06",
            "close_approach_date_full": "2014-Dec-06 07:27",
            "epoch_date_close_approach": 1417850820000,
            "relative_velocity": {
                "kilometers_per_second": "6.6987975213",
                "kilometers_per_hour": "24115.6710765168",
                "miles_per_hour": "14984.5401752946"
            },
            "miss_distance": {
                "astronomical": "0.1692811227",
                "lunar": "65.8503567303",
                "kilometers": "25324095.387128649",
                "miles": "15735663.2011633962"
            },
            "orbiting_body": "Earth"
        }
    ],
    "orbital_data": {
        "orbit_id": "3",
        "orbit_determination_date": "2017-04-06 08:37:08",
        "first_observation_date": "2014-11-24",
        "last_observation_date": "2014-11-28",
        "data_arc_in_days": 4,
        "observations_used": 8,
        "orbit_uncertainty": "9",
        "minimum_orbit_intersection": ".154223",
        "jupiter_tisserand_invariant": "4.660",
        "epoch_osculation": "2456987.5",
        "eccentricity": ".2105879482666506",
        "semi_major_axis": "1.420342657806512",
        "inclination": "12.71114860691148",
        "ascending_node_longitude": "68.09483679672968",
        "orbital_period": "618.2841635008284",
        "perihelion_distance": "1.121235611663437",
        "perihelion_argument": "30.4458896627919",
        "aphelion_distance": "1.719449703949586",
        "perihelion_time": "2457028.562442539068",
        "mean_anomaly": "336.091124135602",
        "mean_motion": ".5822565435957792",
        "equinox": "J2000",
        "orbit_class": {
            "orbit_class_type": "AMO",
            "orbit_class_description": "Near-Earth asteroid orbits similar to that of 1221 Amor",
            "orbit_class_range": "1.017 AU < q (perihelion) < 1.3 AU"
        }
    },
    "is_sentry_object": false
}